STARLINK-3134           
1 49434U 21104AC  26068.67883175 -.00002865  00000+0 -16199-3 0  9990
2 49434  53.2157 229.3302 0000902  85.9598 274.1497 15.08837060239719
DISKSAT A               
1 67222U 25305D   26068.54789610  .00013824  00000+0  90452-3 0  9996
2 67222  45.0023 251.6019 0004082 318.1929  41.8634 15.07741062 12266
